{"type":"FeatureCollection","features":[{"type":"Feature","properties":{"basin_no":5,"name":"Goulburn River"},"geometry":{"type":"MultiPolygon","coordinates":[[[[144.80813540516417,-36.12381917684255],[144.81354728874805,-36.11506746053271],[144.80759478206417,-36.113390774173894],[144.80653806485265,-36.10825667235275],[144.81634151452164,-36.11043953693829],[144.8106826227438,-36.10300923140023],[144.82081073975743,-36.10789585207334],[144.82476652947992,-36.103427156440816],[144.84298858065765,-36.09996921371864],[144.84062760003323,-36.09492380200879],[144.84390860163916,-36.09308961181016],[144.84302436537172,-36.084044758533445],[144.85055101124001,-36.08168868117679],[144.84799599031427,-36.07277686749495],[144.85640460410536,-36.07346767754712],[144.85462657186127,-36.06902699916043],[144.85837151696114,-36.066039418802795],[144.86024031958397,-36.067127598230634],[144.85768363128673,-36.06929654368704],[144.8612123028025,-36.07182411054004],[144.86484509826846,-36.06683099514246],[144.86436403321918,-36.05998113261256],[144.87629896864829,-36.05829980413043],[144.88981064085604,-36.06364832475177],[144.90485163114258,-36.061642425304775],[144.931975981203,-36.067464680934826],[144.93779621333564,-36.07162246052674],[144.93670363877945,-36.07647044834038],[144.94953060968075,-36.08280304604018],[144.98289721281955,-36.071660076878445],[144.98699040727305,-36.06591531796263],[144.9841424701749,-36.05159009297817],[144.9667432513969,-36.039262082343015],[144.96750024696573,-36.03183614704522],[144.96305626904953,-36.02730163048001],[144.9622447264224,-36.018739696196945],[144.9551158852263,-36.018944469437],[144.94700540583125,-36.01337155197023],[144.94544967028347,-36.004070199544195],[144.936317161909,-35.999478416711305],[144.9291466042518,-35.989907739019856],[144.92384743221555,-35.98894915929286],[144.92608309479832,-35.973467282301634],[144.93050439515565,-35.96851312899492],[144.95129542874147,-35.96275386870387],[144.9781866838137,-36.02225858079164],[145.00176811883202,-36.044471361134946],[145.0244834020972,-36.052286835013774],[145.08160721613407,-36.059912419278206],[145.14731153697423,-36.07507196309669],[145.1672245128566,-36.07516777963757],[145.18429513897243,-36.066950887353265],[145.19110108111298,-36.06682317126989],[145.21638129074236,-36.087522344513495],[145.23863115425098,-36.09769100088717],[145.24421317873038,-36.11428025345057],[145.25067903321292,-36.119611117349635],[145.30197086516944,-36.12930237119628],[145.3126547999959,-36.134474899014464],[145.32099468865235,-36.14428492938665],[145.35941361010742,-36.23725529919543],[145.4001986363911,-36.288245555212605],[145.41802941181427,-36.32226717010579],[145.41828409541796,-36.344223442244065],[145.4103033588434,-36.37762611955312],[145.4030518869097,-36.38639218256959],[145.38272705406325,-36.39575920110629],[145.38037694077727,-36.40058345261528],[145.39659527572863,-36.423677105386126],[145.42966119895027,-36.454328395443895],[145.44323649772633,-36.459825421685565],[145.50184989939655,-36.46403633360164],[145.5298323315113,-36.46285215129395],[145.611516723528,-36.44843104379799],[145.6505319330502,-36.44809432887352],[145.69819607304638,-36.456169827071186],[145.71803657875867,-36.46776245124031],[145.73970569583082,-36.498809415242235],[145.75935670205814,-36.508922720012414],[145.7746735180353,-36.5216156967085],[145.8338164005302,-36.52895741366156],[145.8419992793276,-36.53990716491611],[145.87562908764184,-36.55754812384753],[145.8809040628768,-36.571409076709706],[145.88069713341474,-36.5818545358598],[145.86492968088797,-36.620438516596536],[145.8747149511259,-36.64203005735524],[145.87392879785344,-36.656877165082705],[145.86711251083344,-36.66826269656076],[145.8567222627859,-36.67734418010525],[145.8407648466961,-36.67858870401653],[145.83557073244432,-36.67621934443133],[145.8242631563608,-36.67992048429849],[145.82214073348717,-36.71192893599978],[145.81277468371138,-36.730875829356904],[145.81158197719824,-36.76936073352225],[145.80037919489928,-36.780866917520555],[145.79908546237886,-36.78593524323891],[145.80707913814956,-36.790711152910774],[145.82780652935864,-36.7894784282092],[145.84961132173166,-36.792555062725576],[145.85472780495965,-36.80362882954669],[145.86450653824232,-36.81003698808879],[145.8669237379389,-36.81682257906934],[145.86471430380354,-36.82378151151468],[145.86762781273077,-36.82893701108678],[145.86706788202895,-36.84289434281474],[145.86195225865623,-36.85833099023222],[145.86808076589887,-36.880051929664894],[145.87729845382142,-36.88125927181712],[145.88225274384638,-36.87705512259112],[145.88675095017237,-36.87885985608999],[145.8904716715557,-36.890847896949836],[145.90375275574868,-36.89972691405466],[145.9130193600906,-36.919443613850156],[145.92207926731444,-36.92136500628987],[145.92504287041416,-36.925324689839314],[145.94551929338093,-36.92524908390554],[145.94431343102437,-36.934170192581504],[145.95874622211815,-36.95407160319289],[145.96247003351772,-36.96576881212246],[145.96893714230657,-36.96814012197392],[145.96974463345916,-36.97226491403109],[145.9836573903009,-36.97800292468821],[145.9938217121399,-36.97403925839954],[146.00684815536752,-36.97425838427345],[146.0169231525845,-36.98850369949134],[146.0378850322711,-36.99431861615852],[146.04112283445525,-37.00626059134998],[146.04708758629056,-37.00982579196857],[146.07468406011026,-37.0022537087477],[146.1408331537038,-37.03233906586228],[146.1816295342795,-37.03611165460729],[146.19756317514313,-37.0454216400622],[146.209610790323,-37.04391184832404],[146.21361231899002,-37.04850222249188],[146.22108371349117,-37.04598378864219],[146.23205232678455,-37.05332633074843],[146.24475194687912,-37.04550805653993],[146.2771898146945,-37.03827046657348],[146.28588436141987,-37.0179577397186],[146.3047437370426,-37.018941199346074],[146.31859095836725,-37.03367735031423],[146.33805435610407,-37.032333160263406],[146.35251715976995,-37.03706617063436],[146.35939123974737,-37.04840341382098],[146.3751509464536,-37.046586440123036],[146.38603212874926,-37.04993315740188],[146.40173227756478,-37.04909992508258],[146.41704935187664,-37.06600081111592],[146.41651325221724,-37.07382784514914],[146.4227859991116,-37.08133911315007],[146.4354289929599,-37.084889772641205],[146.44249516799044,-37.09442656472455],[146.45669189912482,-37.10310964958539],[146.47554646480083,-37.10457934268819],[146.48639705694112,-37.1129760946719],[146.4964815405297,-37.11629996295701],[146.50205752427513,-37.12440583026157],[146.5103820318085,-37.124061271244294],[146.525361898303,-37.1171391729593],[146.532802439967,-37.117714440414616],[146.54183858172163,-37.12404376624155],[146.55473965664746,-37.12437081773781],[146.56532054845243,-37.13410623561974],[146.57100972275282,-37.14961322712262],[146.57984836402767,-37.15533403557107],[146.62383257571997,-37.158303035016246],[146.6456830759484,-37.163267810220184],[146.6590695918188,-37.16996903638773],[146.64743656263357,-37.17655960134779],[146.64268941108324,-37.18608101699251],[146.59917266440982,-37.196812020952166],[146.60434667239286,-37.22121213732826],[146.58006959228953,-37.25018907641873],[146.571723753722,-37.283346988162066],[146.53765880185753,-37.302498251812075],[146.48678537273935,-37.28240390149644],[146.4729711986944,-37.287842793096964],[146.4537003849446,-37.289135234595896],[146.44780184948712,-37.29743337561447],[146.44953718716508,-37.33022074998827],[146.42831987264077,-37.340997631752245],[146.43363906802776,-37.35739834034441],[146.43491009020605,-37.37828515716094],[146.42709498744918,-37.40484081487264],[146.42860958870008,-37.41319685661381],[146.42136869277522,-37.42126660655749],[146.40674782467391,-37.42560847320661],[146.3992829767662,-37.43408946460013],[146.38952722611498,-37.43635787230168],[146.3927120753063,-37.4482129305505],[146.38819191850115,-37.459370346109125],[146.39669417144805,-37.47081577995968],[146.41362035129808,-37.48155193911512],[146.42198319887942,-37.510633193465935],[146.4365793969667,-37.519790298746834],[146.44435930501896,-37.51417713276456],[146.44767768965065,-37.5152131164515],[146.4556712613903,-37.52620090848627],[146.47992239759893,-37.53845836752384],[146.4818869882112,-37.550434142651575],[146.48948484387532,-37.55044210120466],[146.5023040870096,-37.56178895307627],[146.49657790840993,-37.566825826917636],[146.49001165219988,-37.583134628350734],[146.48211663930383,-37.58347284453531],[146.47288911038657,-37.59533642013021],[146.46645332781597,-37.59831304505159],[146.463508377655,-37.618381671480115],[146.44554008754955,-37.613909352388276],[146.43258912467712,-37.62208550152337],[146.4060747565751,-37.60666968855336],[146.39246372329623,-37.606632853720896],[146.38306988482742,-37.61188764487311],[146.3828510156747,-37.62353471268177],[146.37086666371823,-37.63229192069145],[146.3428770047879,-37.620595164939914],[146.31933573225479,-37.59727447008913],[146.29904592676434,-37.59301286871403],[146.29001461439103,-37.59533711645558],[146.27682519306805,-37.605746530802],[146.25169959277522,-37.611376232063556],[146.241616707211,-37.606694256811025],[146.23357641603127,-37.6084993396426],[146.20586046349638,-37.60008263933847],[146.19065573637783,-37.587421070680186],[146.18901459091592,-37.581090428772136],[146.17533492241245,-37.586128577023075],[146.1594046390694,-37.59993090623008],[146.16532549644967,-37.62379714363482],[146.15856926508678,-37.621863558136624],[146.15771391610335,-37.62541265814037],[146.14174371498228,-37.62971709684893],[146.14081001524642,-37.63662734744056],[146.1305580590678,-37.644537162868865],[146.13071349232024,-37.64890523030218],[146.11888407349795,-37.6532118292087],[146.09727341298094,-37.65264905043896],[146.08244218978285,-37.65843494871959],[146.07636939308165,-37.66417543212321],[146.06539519010224,-37.66164882967054],[146.06248618930715,-37.66483285442209],[146.05492341338584,-37.66534671161471],[146.04577046357156,-37.66163077683981],[146.04216234751195,-37.652054158473874],[146.03136669082514,-37.64712176520387],[146.02418912405923,-37.647990631335055],[146.01630420236148,-37.642644113629586],[146.0100300606292,-37.63159827894802],[146.0010859662007,-37.62412452757728],[145.99179746127993,-37.606102704168656],[145.98867056308814,-37.59648866235614],[145.99103830594336,-37.5803596198175],[145.9842220777673,-37.57882191955083],[145.97902702504604,-37.58214460304285],[145.97326381654085,-37.57893076959279],[145.9706360285761,-37.56895619510325],[145.96613824926067,-37.567267737062814],[145.9597383190158,-37.55421084694803],[145.942808134646,-37.555649122905336],[145.94158628753192,-37.562087280489955],[145.9264339097244,-37.5731943710377],[145.91207619041523,-37.56465687282575],[145.8917108615998,-37.56269064832354],[145.8893842309794,-37.5604242572212],[145.89334505491465,-37.555357915917405],[145.8917729809243,-37.538116028153084],[145.88111032822627,-37.52505522159732],[145.86019251715993,-37.53284514993559],[145.8485451343753,-37.528419932071955],[145.83695728688585,-37.53260203696095],[145.8239010408813,-37.53140986722401],[145.8179795519384,-37.55550279630671],[145.80784705931623,-37.565902161625694],[145.79442662547316,-37.56216405926932],[145.76324030920392,-37.57424431650855],[145.74913543079776,-37.572672363261404],[145.7408408129057,-37.56537282137677],[145.73276076129522,-37.570441613475765],[145.73041285420283,-37.57865042878181],[145.73822061101458,-37.59370658030686],[145.73690305179863,-37.599246790989355],[145.74624393470432,-37.606702219820264],[145.74066323277395,-37.61030522006366],[145.74196400331982,-37.616477699558644],[145.74521058040364,-37.622029714142926],[145.75712946291162,-37.62962551997121],[145.76571463012914,-37.64816601426289],[145.76404285017534,-37.65469091402004],[145.76709515911128,-37.663194422238526],[145.7606122795309,-37.67907102202982],[145.74565598871826,-37.67836439669335],[145.71293745441355,-37.66807010030071],[145.70308488730268,-37.657750103313056],[145.7042647084034,-37.64693599870614],[145.697476406891,-37.642737271125796],[145.6860086004555,-37.62656005110221],[145.66433750661966,-37.6196204613968],[145.65864507088241,-37.61456189586319],[145.65452717975415,-37.59879076843904],[145.6340592312732,-37.59047842456257],[145.61977737417365,-37.57315641163222],[145.6075211445416,-37.57494099841381],[145.59651613800008,-37.563883488934586],[145.57975908762194,-37.568805253054464],[145.57354359951202,-37.585810186373884],[145.56041510602898,-37.59192344911438],[145.53315437794984,-37.558109317066325],[145.52161390773412,-37.56348117776937],[145.5139059496718,-37.56284821947446],[145.4857320475146,-37.54753337896437],[145.43954283904918,-37.528550136736555],[145.41864672045293,-37.52804507648747],[145.3984743075416,-37.539111762635926],[145.39093172452183,-37.540231636849384],[145.35826185131256,-37.536902318635974],[145.33797447108134,-37.53119575102209],[145.3192213372289,-37.51853929547243],[145.30801624708135,-37.499026257311364],[145.29045726061244,-37.48246497585549],[145.27794443636947,-37.48374291450458],[145.24092209878086,-37.478927043510126],[145.22268875989255,-37.47255671668013],[145.20613227361798,-37.45840929411874],[145.19990140623645,-37.44516156130026],[145.18898526724212,-37.43549812747143],[145.18551511683842,-37.42707905786617],[145.15692734796326,-37.416434355317065],[145.1405311582617,-37.42659148078012],[145.1336893422552,-37.42649130527674],[145.12732231838564,-37.41863694551707],[145.12519269471096,-37.40349303556548],[145.1204954092423,-37.39454171007063],[145.1004063828658,-37.38421670010194],[145.09005868838958,-37.37363350000993],[145.06687239516424,-37.387380764761204],[145.0408918048639,-37.37122796196393],[145.0124223249022,-37.38175402031799],[145.00016290878662,-37.379916645229805],[145.0014588478493,-37.37696126972116],[144.97996291032385,-37.37017032508028],[144.96370015872037,-37.38221780822074],[144.96346617859604,-37.358394272419645],[144.95808326515768,-37.347719587551126],[144.9408650655417,-37.33982355400298],[144.93727929435443,-37.31828224600167],[144.9183508264724,-37.31331488769818],[144.91282585994296,-37.300353863182025],[144.895219903918,-37.301655037066524],[144.84892028033528,-37.312818422816356],[144.83546378668703,-37.30661928859269],[144.829219139753,-37.298293803758554],[144.83297845991885,-37.284477136908116],[144.82857774546446,-37.276289361950255],[144.82537082370547,-37.25688513755764],[144.82880764140666,-37.23571558013226],[144.82627351543402,-37.228945022088176],[144.80969018684672,-37.22229681241369],[144.79291021840206,-37.221529794784345],[144.77572215276098,-37.211005733103676],[144.76983891244555,-37.22121236667428],[144.7605339821728,-37.21940983961393],[144.7394054569389,-37.227844120204004],[144.73407905151868,-37.22655727805235],[144.72970099979065,-37.21937048608664],[144.71712979290993,-37.2160882937368],[144.69253381297378,-37.21631977529441],[144.68484041220034,-37.22220139974544],[144.6711769674594,-37.20734651505994],[144.6594971209363,-37.211584480566174],[144.66029970959917,-37.19635907259048],[144.67332143248709,-37.188092498923666],[144.67638660606752,-37.18271260772156],[144.67627289575103,-37.172084358175766],[144.67218500446705,-37.16244085825829],[144.67713677362875,-37.14933507636072],[144.68315348426228,-37.14324214425566],[144.69191163034304,-37.14682892006804],[144.70917813929313,-37.13748801477765],[144.71204162891172,-37.118644715957494],[144.70930603693333,-37.10249993984601],[144.71291113474015,-37.10241410677673],[144.7148559559773,-37.11133034955742],[144.72532067796104,-37.12664165003665],[144.74071662097984,-37.13442547545643],[144.74610706843274,-37.127890918066186],[144.7655997396298,-37.12160108577726],[144.77247690001607,-37.09664136002104],[144.78277961022158,-37.090619002243656],[144.7960097721683,-37.09069655229839],[144.80212167426538,-37.083750627356714],[144.81161863275585,-37.08351382748914],[144.82050263732214,-37.07578740281021],[144.82786979802896,-37.06302112044753],[144.81896586782324,-37.04918535163166],[144.82022457310723,-37.03977551990692],[144.81445371696412,-37.031300994459436],[144.7956292290218,-37.016708564571324],[144.79844462468327,-36.99320857712162],[144.79079010490148,-36.9856216597689],[144.78873130126067,-36.97768390100501],[144.7745615036522,-36.96582194159357],[144.75205289203006,-36.95380598219807],[144.74159110485598,-36.934788477171296],[144.7278282326394,-36.92444916708202],[144.72720193853124,-36.903826119267684],[144.7471898387298,-36.8983287285275],[144.750604471484,-36.893492578616005],[144.75210003426452,-36.88421439598278],[144.74789247911582,-36.87515398826534],[144.72790483534212,-36.87201010373301],[144.72371725397167,-36.868391553324884],[144.7149507615239,-36.86991171721636],[144.7059776279857,-36.85817549440064],[144.69139683731905,-36.85570547678714],[144.68807585912825,-36.84411756820448],[144.6745783680992,-36.841337425230144],[144.65977854207384,-36.82155263199915],[144.67595032524443,-36.808986825341385],[144.68728420221137,-36.79313059204713],[144.70150783615537,-36.797479076096984],[144.70773461561674,-36.79636820242076],[144.72076138937723,-36.783986636667564],[144.72610857335417,-36.77087879664823],[144.7187506159766,-36.757889984742505],[144.73118787466046,-36.7365035636017],[144.7243288793785,-36.69977142744753],[144.7348663819222,-36.65946518149881],[144.73293637470636,-36.64553381214651],[144.74418611654784,-36.63643445358141],[144.7492441751805,-36.624036503714485],[144.75220976378853,-36.61051207036294],[144.74457280405284,-36.59334271327477],[144.75564685358563,-36.5824619995836],[144.76339064977512,-36.541975426536276],[144.762150082575,-36.522868505268804],[144.7555092389368,-36.51328029825559],[144.7623470160649,-36.48993616832574],[144.75292567631325,-36.478071317163746],[144.75119475446328,-36.45133040615659],[144.7773971883402,-36.4119517595621],[144.78860403710192,-36.3845946895371],[144.84598805902806,-36.31344445180508],[144.85333867433155,-36.291464838602906],[144.85733084624184,-36.24185450588538],[144.84602486130922,-36.193414565410464],[144.80813540516417,-36.12381917684255]]]]}}]}